EUTELSAT QUANTUM        
1 49056U 21069B   25243.93711763  .00000129  00000+0  00000+0 0  9995
2 49056   0.0526 291.1223 0001960 252.2139 182.0725  1.00271996 15027
EUTELSAT KONNECT VHTS   
1 53765U 22110A   25243.91294771  .00000021  00000+0  00000+0 0  9999
2 53765   0.0532 104.8419 0003284  40.6265 166.2345  1.00271728  3924
EUTELSAT HOTBIRD 13F    
1 54048U 22134A   25243.88495839  .00000090  00000+0  00000+0 0  9990
2 54048   0.0573 292.3332 0001841  76.8037 302.7577  1.00271802 10471
EUTELSAT HOTBIRD 13G    
1 54225U 22146A   25243.88495839  .00000091  00000+0  00000+0 0  9991
2 54225   0.0518 233.8850 0002189 294.6356 143.3696  1.00274562  4562
EUTELSAT 10B            
1 54259U 22157A   25243.91294771  .00000072  00000+0  00000+0 0  9995
2 54259   0.0519 103.1066 0001747 350.3379 225.5669  1.00270404 10114
EUTELSAT 36D            
1 59346U 24059A   25243.93725652  .00000159  00000+0  00000+0 0  9995
2 59346   0.0169 163.8059 0000281 288.7201 261.1014  1.00268242  5247
